EUTELSAT 7A             
1 28187U 04008A   25289.59957293  .00000095  00000+0  00000+0 0  9995
2 28187   5.2096  74.8995 0001507 179.6723 207.4408  1.00272109 78912
EUTELSAT 174A           
1 28924U 05052A   25289.66162656  .00000001  00000+0  00000+0 0  9990
2 28924   3.6003  79.5290 0006374 130.5130 227.6139  1.00273970 49882
EUTELSAT HOTBIRD 13B    
1 29270U 06032A   25289.91911446  .00000145  00000+0  00000+0 0  9990
2 29270   1.0298  84.8585 0004088 115.2339 189.5815  1.00269570 44863
EUTELSAT HOTBIRD 13C    
1 33459U 08065A   25289.91010109 -.00000110  00000+0  00000+0 0  9991
2 33459   2.3221  82.0500 0005868 146.3057 112.4732  1.00271956 44902
EUTELSAT 36B            
1 36101U 09065A   25289.92258115  .00000100  00000+0  00000+0 0  9999
2 36101   0.0579  32.2288 0006098 179.5943 196.4832  1.00272534 58268
EUTELSAT KA-SAT 9A      
1 37258U 10069A   25289.62895308  .00000049  00000+0  00000+0 0  9999
2 37258   0.0591 319.7754 0003014 212.6590  88.4146  1.00268328 41568
EUTELSAT 7 WEST A       
1 37816U 11051A   25289.87544816 -.00000072  00000+0  00000+0 0  9990
2 37816   0.0801  36.5239 0006431 167.5670 129.4201  1.00271578 51444
EUTELSAT 16A            
1 37836U 11057A   25289.88933792  .00000092  00000+0  00000+0 0  9995
2 37836   0.0658  12.1049 0005462 195.8209 153.8997  1.00272293  4884
